*******************************************************************************
 Revised: Mar 12, 2021             Io  / (Jupiter)                          501

 SATELLITE PHYSICAL PROPERTIES:
  Mean radius (km)       = 1821.6   +- 0.5   Density (g cm^-3) = 3.528 +- 0.006
  GM (km^3/s^2)          = 5959.9155+- 0.004 Geometric Albedo  = 0.63  +- 0.02

 SATELLITE ORBIT (at J2000.0 epoch, 2000-Jan-1.5):
  Semi-major axis, a (km)~ 422,000           Orbital period    ~ 1.77 d
  Eccentricity, e        ~ 0.00472           Rotational period = Synchronous
  Inclination, i  (deg)  ~ 0.0375
*******************************************************************************
 
 
*******************************************************************************
Ephemeris / WWW_USER Thu Apr  8 14:44:37 2021 Pasadena, USA      / Horizons
*******************************************************************************
Target body name: Io (501)                        {source: jup365_merged}
Center body name: Jupiter (599)                   {source: jup365_merged}
Center-site name: BODY CENTER
*******************************************************************************
Start time      : A.D. 1986-Apr-24 12:00:00.0000 TDB
Stop  time      : A.D. 2013-Sep-09 12:00:00.0000 TDB
Step-size       : 144000 minutes
*******************************************************************************
Center geodetic : 0.00000000,0.00000000,0.0000000 {W-lon(deg),Lat(deg),Alt(km)}
Center cylindric: 0.00000000,0.00000000,0.0000000 {W-lon(deg),Dxy(km),Dz(km)}
Center radii    : 71492.0 x 71492.0 x 66854.0 km  {Equator, meridian, pole}    
Output units    : AU-D
Output type     : LT+S CORRECTED cartesian states
Output format   : 2 (position and velocity)
Reference frame : ICRF
*******************************************************************************
JDTDB
   X     Y     Z
   VX    VY    VZ
*******************************************************************************
$$SOE
2446545.000000000 = A.D. 1986-Apr-24 12:00:00.0000 TDB 
 X = 1.134408131605554E-03 Y =-2.347313274489913E-03 Z =-1.099325983978550E-03
 VX= 9.148038778472862E-03 VY= 3.535900042349451E-03 VZ= 1.834440550885052E-03
2446645.000000000 = A.D. 1986-Aug-02 12:00:00.0000 TDB 
 X =-1.518091561449443E-03 Y = 2.146533663222704E-03 Z = 9.974890274859673E-04
 VX=-8.466433067290722E-03 VY=-4.815455657603314E-03 VZ=-2.431019858498243E-03
2446745.000000000 = A.D. 1986-Nov-10 12:00:00.0000 TDB 
 X = 1.839274858864231E-03 Y =-1.931009576613945E-03 Z =-8.899063148186687E-04
 VX= 7.573501953831057E-03 VY= 5.905035176279602E-03 VZ= 2.934241177661123E-03
2446845.000000000 = A.D. 1987-Feb-18 12:00:00.0000 TDB 
 X =-2.160035060479667E-03 Y = 1.661932312611108E-03 Z = 7.569172889578503E-04
 VX=-6.422462837592389E-03 VY=-6.856251949182122E-03 VZ=-3.367818647014497E-03
2446945.000000000 = A.D. 1987-May-29 12:00:00.0000 TDB 
 X = 2.431196282755322E-03 Y =-1.313896309036233E-03 Z =-5.873006519359146E-04
 VX= 5.119038393422605E-03 VY= 7.715753126836166E-03 VZ= 3.756071035342003E-03
2447045.000000000 = A.D. 1987-Sep-06 12:00:00.0000 TDB 
 X =-2.604838818318441E-03 Y = 9.633646450129560E-04 Z = 4.179610485899779E-04
 VX=-3.770436894978533E-03 VY=-8.388290159102670E-03 VZ=-4.055510012160796E-03
2447145.000000000 = A.D. 1987-Dec-15 12:00:00.0000 TDB 
 X = 2.736185820264373E-03 Y =-6.176031702726649E-04 Z =-2.515263900606769E-04
 VX= 2.330503922609540E-03 VY= 8.787117456273452E-03 VZ= 4.223628907052413E-03
2447245.000000000 = A.D. 1988-Mar-24 12:00:00.0000 TDB 
 X =-2.822181943050408E-03 Y = 2.128240796319698E-04 Z = 5.750146328373939E-05
 VX=-7.576353336467847E-04 VY=-8.971019760183498E-03 VZ=-4.288132106027314E-03
2447345.000000000 = A.D. 1988-Jul-02 12:00:00.0000 TDB 
 X = 2.808678013491492E-03 Y = 2.059804815408501E-04 Z = 1.419028062388627E-04
 VX=-8.353554248762213E-04 VY= 9.010370932515077E-03 VZ= 4.283447034589626E-03
2447445.000000000 = A.D. 1988-Oct-10 12:00:00.0000 TDB 
 X =-2.730904027907790E-03 Y =-5.706548894893190E-04 Z =-3.146747407516332E-04
 VX= 2.333918180657782E-03 VY=-8.841236181940142E-03 VZ=-4.181052592186282E-03
2447545.000000000 = A.D. 1989-Jan-18 12:00:00.0000 TDB 
 X = 2.618204062180572E-03 Y = 9.341934596055919E-04 Z = 4.866526270345625E-04
 VX=-3.768095588037258E-03 VY= 8.385787005949431E-03 VZ= 3.942670988325962E-03
2447645.000000000 = A.D. 1989-Apr-28 12:00:00.0000 TDB 
 X =-2.415084492717608E-03 Y =-1.316535049932896E-03 Z =-6.662803179242659E-04
 VX= 5.186353634028388E-03 VY=-7.720171978158616E-03 VZ=-3.603611165494077E-03
2447745.000000000 = A.D. 1989-Aug-06 12:00:00.0000 TDB 
 X = 2.137319549778898E-03 Y = 1.638607716459920E-03 Z = 8.161336732252612E-04
 VX=-6.495813267219278E-03 VY= 6.938141108046574E-03 VZ= 3.210058288982911E-03
2447845.000000000 = A.D. 1989-Nov-14 12:00:00.0000 TDB 
 X =-1.851969374693485E-03 Y =-1.894989740126837E-03 Z =-9.344643853592502E-04
 VX= 7.570131133737335E-03 VY=-6.007481806148609E-03 VZ=-2.748152354109875E-03
2447945.000000000 = A.D. 1990-Feb-22 12:00:00.0000 TDB 
 X = 1.515547848904327E-03 Y = 2.144092546013750E-03 Z = 1.048421879042738E-03
 VX=-8.444505764661322E-03 VY= 4.859899635102159E-03 VZ= 2.185339405083882E-03
2448045.000000000 = A.D. 1990-Jun-02 12:00:00.0000 TDB 
 X =-1.095473990834451E-03 Y =-2.344515374070577E-03 Z =-1.137645919716439E-03
 VX= 9.192455036979264E-03 VY=-3.576190405715918E-03 VZ=-1.558651336588407E-03
2448145.000000000 = A.D. 1990-Sep-10 12:00:00.0000 TDB 
 X = 6.794198866275774E-04 Y = 2.455970756375734E-03 Z = 1.184152307585780E-03
 VX=-9.741857019667864E-03 VY= 2.275279331364203E-03 VZ= 9.267725649667511E-04
2448245.000000000 = A.D. 1990-Dec-19 12:00:00.0000 TDB 
 X =-2.842585052232998E-04 Y =-2.524330485807467E-03 Z =-1.210247959770994E-03
 VX= 9.983467500588109E-03 VY=-9.455523178784411E-04 VZ=-2.860728308257999E-04
2448345.000000000 = A.D. 1991-Mar-29 12:00:00.0000 TDB 
 X =-1.658379167046370E-04 Y = 2.550974621874090E-03 Z = 1.215204363493232E-03
 VX=-9.954512105793371E-03 VY=-4.752303857977817E-04 VZ=-3.933872144803136E-04
2448445.000000000 = A.D. 1991-Jul-07 12:00:00.0000 TDB 
 X = 6.289486483643773E-04 Y =-2.486589441860224E-03 Z =-1.176344785420199E-03
 VX= 9.760049831654682E-03 VY= 1.913050308523837E-03 VZ= 1.077444161915024E-03
2448545.000000000 = A.D. 1991-Oct-15 12:00:00.0000 TDB 
 X =-1.022993259158795E-03 Y = 2.366648224012966E-03 Z = 1.111982704321767E-03
 VX=-9.363295647504502E-03 VY=-3.241532370025931E-03 VZ=-1.705348805301890E-03
2448645.000000000 = A.D. 1992-Jan-23 12:00:00.0000 TDB 
 X = 1.398933173601314E-03 Y =-2.218728602456027E-03 Z =-1.034552163082086E-03
 VX= 8.670736304597094E-03 VY= 4.459017380315088E-03 VZ= 2.274140974780886E-03
2448745.000000000 = A.D. 1992-May-02 12:00:00.0000 TDB 
 X =-1.787868892816761E-03 Y = 1.992981630910028E-03 Z = 9.198825700476962E-04
 VX=-7.733807427434502E-03 VY=-5.629798478692064E-03 VZ=-2.815879851507745E-03
2448845.000000000 = A.D. 1992-Aug-10 12:00:00.0000 TDB 
 X = 2.107499907178841E-03 Y =-1.699637436231531E-03 Z =-7.742611695789133E-04
 VX= 6.677197803673046E-03 VY= 6.705062295829982E-03 VZ= 3.309159001231100E-03
2448945.000000000 = A.D. 1992-Nov-18 12:00:00.0000 TDB 
 X =-2.347616063226865E-03 Y = 1.407161758463745E-03 Z = 6.306944885172844E-04
 VX=-5.501661846088566E-03 VY=-7.557157635734145E-03 VZ=-3.693642933826077E-03
2449045.000000000 = A.D. 1993-Feb-26 12:00:00.0000 TDB 
 X = 2.568340227487242E-03 Y =-1.078691582673436E-03 Z =-4.704808881608144E-04
 VX= 4.127437634855907E-03 VY= 8.188444666737790E-03 VZ= 3.969509493670383E-03
2449145.000000000 = A.D. 1993-Jun-06 12:00:00.0000 TDB 
 X =-2.731608281306008E-03 Y = 6.799369255544899E-04 Z = 2.780642123914291E-04
 VX=-2.611245397441929E-03 VY=-8.679873613704935E-03 VZ=-4.176418424010611E-03
2449245.000000000 = A.D. 1993-Sep-14 12:00:00.0000 TDB 
 X = 2.795059240459973E-03 Y =-2.867099985036152E-04 Z =-9.012611797837170E-05
 VX= 1.093178843019110E-03 VY= 9.006011579364452E-03 VZ= 4.305358231750626E-03
2449345.000000000 = A.D. 1993-Dec-23 12:00:00.0000 TDB 
 X =-2.809939623324264E-03 Y =-7.504332713479134E-05 Z =-8.189519035721761E-05
 VX= 4.007141369272123E-04 VY=-9.059797886199483E-03 VZ=-4.305501051679900E-03
2449445.000000000 = A.D. 1994-Apr-02 12:00:00.0000 TDB 
 X = 2.775662407353546E-03 Y = 4.763386329181196E-04 Z = 2.718432671733135E-04
 VX=-1.948850192531091E-03 VY= 8.847712490500481E-03 VZ= 4.179303995228222E-03
2449545.000000000 = A.D. 1994-Jul-11 12:00:00.0000 TDB 
 X =-2.641558266654413E-03 Y =-8.848020320625381E-04 Z =-4.636919865053016E-04
 VX= 3.497815845691948E-03 VY=-8.477019786993955E-03 VZ=-3.978318106812862E-03
2449645.000000000 = A.D. 1994-Oct-19 12:00:00.0000 TDB 
 X = 2.448535752195254E-03 Y = 1.225867027025576E-03 Z = 6.225694691958224E-04
 VX=-4.908900647530317E-03 VY= 7.951224847993066E-03 VZ= 3.706504752056889E-03
2449745.000000000 = A.D. 1995-Jan-27 12:00:00.0000 TDB 
 X =-2.232205895310152E-03 Y =-1.538174841827915E-03 Z =-7.676558261534989E-04
 VX= 6.144670945406027E-03 VY=-7.183255248837443E-03 VZ=-3.322786034814969E-03
2449845.000000000 = A.D. 1995-May-07 12:00:00.0000 TDB 
 X = 1.932739853410156E-03 Y = 1.855694703423916E-03 Z = 9.140849883932587E-04
 VX=-7.285716876939355E-03 VY= 6.190121198233627E-03 VZ= 2.833327645472142E-03
2449945.000000000 = A.D. 1995-Aug-15 12:00:00.0000 TDB 
 X =-1.562221763066025E-03 Y =-2.108148705050365E-03 Z =-1.028677012873946E-03
 VX= 8.312826393872525E-03 VY=-5.094548815280736E-03 VZ=-2.297012990680684E-03
2450045.000000000 = A.D. 1995-Nov-23 12:00:00.0000 TDB 
 X = 1.201767473000362E-03 Y = 2.283672945361457E-03 Z = 1.106989680893833E-03
 VX=-9.088706764028150E-03 VY= 3.932563376254975E-03 VZ= 1.732254549236740E-03
2450145.000000000 = A.D. 1996-Mar-02 12:00:00.0000 TDB 
 X =-8.160440495817812E-04 Y =-2.434603019916150E-03 Z =-1.173272188610861E-03
 VX= 9.583131912508553E-03 VY=-2.633536925575277E-03 VZ=-1.106153140437145E-03
